[
    {
        "CCSDS_OMM_VERS": "3.0",
        "COMMENT": "GENERATED VIA SPACE-TRACK.ORG API",
        "CREATION_DATE": "2025-03-02T22:26:17",
        "ORIGINATOR": "18 SPCS",
        "OBJECT_NAME": "COSMOS 2461 (GLONASS)",
        "OBJECT_ID": "2010-007B",
        "CENTER_NAME": "EARTH",
        "REF_FRAME": "TEME",
        "TIME_SYSTEM": "UTC",
        "MEAN_ELEMENT_THEORY": "SGP4",
        "EPOCH": "2025-03-02T17:24:38.721024",
        "MEAN_MOTION": "2.13106570",
        "ECCENTRICITY": "0.00213590",
        "INCLINATION": "65.6916",
        "RA_OF_ASC_NODE": "330.4431",
        "ARG_OF_PERICENTER": "359.5828",
        "MEAN_ANOMALY": "180.8003",
        "EPHEMERIS_TYPE": "0",
        "CLASSIFICATION_TYPE": "U",
        "NORAD_CAT_ID": "36401",
        "ELEMENT_SET_NO": "999",
        "REV_AT_EPOCH": "11676",
        "BSTAR": "0.00000000000000",
        "MEAN_MOTION_DOT": "-0.00000052",
        "MEAN_MOTION_DDOT": "0.0000000000000",
        "SEMIMAJOR_AXIS": "25507.660",
        "PERIOD": "675.718",
        "APOAPSIS": "19184.007",
        "PERIAPSIS": "19075.043",
        "OBJECT_TYPE": "PAYLOAD",
        "RCS_SIZE": "LARGE",
        "COUNTRY_CODE": "CIS",
        "LAUNCH_DATE": "2010-03-01",
        "SITE": "TTMTR",
        "DECAY_DATE": null,
        "FILE": "4657191",
        "GP_ID": "282101565",
        "TLE_LINE0": "0 COSMOS 2461 (GLONASS)",
        "TLE_LINE1": "1 36401U 10007B   25061.72544816 -.00000052  00000-0  00000+0 0  9990",
        "TLE_LINE2": "2 36401  65.6916 330.4431 0021359 359.5828 180.8003  2.13106570116763"
    }
]